start=new Date('2021-12-25T00:00:00.000Z').valueOf();
sats=[{"SEMIMAJOR_AXIS":"6737.838","GP_ID":"192400072","PERIAPSIS":"357.609","NORAD_CAT_ID":"49157","OBJECT_NAME":"STARLINK-3051","LAUNCH_DATE":"2021-09-14","MEAN_MOTION_DDOT":"0.0000000000000","CLASSIFICATION_TYPE":"U","APOAPSIS":"361.797","MEAN_ANOMALY":"263.5078","ARG_OF_PERICENTER":"273.4754","EPOCH":"2021-12-24T22:00:00.999936","TLE_LINE2":"2 49157  69.9972 200.7105 0003108 273.4754 263.5078 15.69718985  3686","COUNTRY_CODE":"US","CENTER_NAME":"EARTH","RCS_SIZE":"LARGE","DECAY_DATE":null,"FILE":"3250462","MEAN_ELEMENT_THEORY":"SGP4","MEAN_MOTION_DOT":"0.00037904","ELEMENT_SET_NO":"999","REV_AT_EPOCH":"368","INCLINATION":"69.9972","BSTAR":"0.00031827000000","EPHEMERIS_TYPE":"0","OBJECT_ID":"2021-082AD","TIME_SYSTEM":"UTC","ECCENTRICITY":"0.00031080","SITE":"AFWTR","REF_FRAME":"TEME","RA_OF_ASC_NODE":"200.7105","PERIOD":"91.736","TLE_LINE1":"1 49157U 21082AD  21358.91667824  .00037904  00000-0  31827-3 0  9998","OBJECT_TYPE":"PAYLOAD","MEAN_MOTION":"15.69718985"},{"MEAN_MOTION_DOT":"0.00035053","ELEMENT_SET_NO":"999","REV_AT_EPOCH":"366","INCLINATION":"69.9974","BSTAR":"0.00029435000000","EPHEMERIS_TYPE":"0","OBJECT_ID":"2021-082AE","TIME_SYSTEM":"UTC","ECCENTRICITY":"0.00033420","SITE":"AFWTR","REF_FRAME":"TEME","RA_OF_ASC_NODE":"200.7017","PERIOD":"91.735","TLE_LINE1":"1 49158U 21082AE  21358.91667824  .00035053  00000-0  29435-3 0  9994","OBJECT_TYPE":"PAYLOAD","MEAN_MOTION":"15.69735439","SEMIMAJOR_AXIS":"6737.791","GP_ID":"192398893","NORAD_CAT_ID":"49158","PERIAPSIS":"357.404","OBJECT_NAME":"STARLINK-3083","LAUNCH_DATE":"2021-09-14","MEAN_MOTION_DDOT":"0.0000000000000","CLASSIFICATION_TYPE":"U","APOAPSIS":"361.908","MEAN_ANOMALY":"272.4905","ARG_OF_PERICENTER":"272.9924","COUNTRY_CODE":"US","TLE_LINE2":"2 49158  69.9974 200.7017 0003342 272.9924 272.4905 15.69735439  3663","EPOCH":"2021-12-24T22:00:00.999936","CENTER_NAME":"EARTH","RCS_SIZE":"LARGE","DECAY_DATE":null,"FILE":"3250462","MEAN_ELEMENT_THEORY":"SGP4"},{"OBJECT_TYPE":"PAYLOAD","MEAN_MOTION":"15.04529431","RA_OF_ASC_NODE":"206.8097","REF_FRAME":"TEME","TLE_LINE1":"1 49159U 21082AF  21358.91667824 -.00665324  00000-0 -50656-1 0  9994","PERIOD":"95.711","EPHEMERIS_TYPE":"0","BSTAR":"-0.05065600000000","ELEMENT_SET_NO":"999","REV_AT_EPOCH":"360","INCLINATION":"70.0000","TIME_SYSTEM":"UTC","OBJECT_ID":"2021-082AF","SITE":"AFWTR","ECCENTRICITY":"0.00033980","MEAN_MOTION_DOT":"-0.00665324","DECAY_DATE":null,"MEAN_ELEMENT_THEORY":"SGP4","FILE":"3250462","TLE_LINE2":"2 49159  70.0000 206.8097 0003398 289.2848 194.1070 15.04529431  3608","COUNTRY_CODE":"US","EPOCH":"2021-12-24T22:00:00.999936","CENTER_NAME":"EARTH","RCS_SIZE":"LARGE","CLASSIFICATION_TYPE":"U","MEAN_MOTION_DDOT":"0.0000000000000","APOAPSIS":"555.308","MEAN_ANOMALY":"194.1070","ARG_OF_PERICENTER":"289.2848","GP_ID":"192399129","SEMIMAJOR_AXIS":"6931.088","OBJECT_NAME":"STARLINK-3056","LAUNCH_DATE":"2021-09-14","PERIAPSIS":"550.597","NORAD_CAT_ID":"49159"},{"ECCENTRICITY":"0.00031550","SITE":"AFWTR","TIME_SYSTEM":"UTC","OBJECT_ID":"2021-082AG","BSTAR":"-0.04973200000000","EPHEMERIS_TYPE":"0","INCLINATION":"69.9999","REV_AT_EPOCH":"360","ELEMENT_SET_NO":"999","MEAN_MOTION_DOT":"-0.00661890","MEAN_MOTION":"15.05010816","OBJECT_TYPE":"PAYLOAD","TLE_LINE1":"1 49160U 21082AG  21358.91667824 -.00661890  00000-0 -49732-1 0  9993","PERIOD":"95.680","RA_OF_ASC_NODE":"206.7642","REF_FRAME":"TEME","ARG_OF_PERICENTER":"282.4930","MEAN_ANOMALY":"289.9768","APOAPSIS":"553.661","CLASSIFICATION_TYPE":"U","MEAN_MOTION_DDOT":"0.0000000000000","LAUNCH_DATE":"2021-09-14","OBJECT_NAME":"STARLINK-3095","NORAD_CAT_ID":"49160","PERIAPSIS":"549.288","GP_ID":"192399366","SEMIMAJOR_AXIS":"6929.609","MEAN_ELEMENT_THEORY":"SGP4","FILE":"3250462","DECAY_DATE":null,"RCS_SIZE":"LARGE","CENTER_NAME":"EARTH","TLE_LINE2":"2 49160  69.9999 206.7642 0003155 282.4930 289.9768 15.05010816  3607","EPOCH":"2021-12-24T22:00:00.999936","COUNTRY_CODE":"US"},{"NORAD_CAT_ID":"49161","PERIAPSIS":"550.170","OBJECT_NAME":"STARLINK-3080","LAUNCH_DATE":"2021-09-14","SEMIMAJOR_AXIS":"6930.633","GP_ID":"192399602","MEAN_ANOMALY":"223.1241","APOAPSIS":"554.826","ARG_OF_PERICENTER":"289.3875","MEAN_MOTION_DDOT":"0.0000000000000","CLASSIFICATION_TYPE":"U","CENTER_NAME":"EARTH","RCS_SIZE":"LARGE","TLE_LINE2":"2 49161  70.0000 206.8039 0003359 289.3875 223.1241 15.04677496  3603","COUNTRY_CODE":"US","EPOCH":"2021-12-24T22:00:00.999936","FILE":"3250462","MEAN_ELEMENT_THEORY":"SGP4","DECAY_DATE":null,"MEAN_MOTION_DOT":"-0.00664058","TIME_SYSTEM":"UTC","OBJECT_ID":"2021-082AH","SITE":"AFWTR","ECCENTRICITY":"0.00033590","ELEMENT_SET_NO":"999","REV_AT_EPOCH":"360","INCLINATION":"70.0000","EPHEMERIS_TYPE":"0","BSTAR":"-0.05035300000000","PERIOD":"95.702","TLE_LINE1":"1 49161U 21082AH  21358.91667824 -.00664058  00000-0 -50353-1 0  9994","REF_FRAME":"TEME","RA_OF_ASC_NODE":"206.8039","MEAN_MOTION":"15.04677496","OBJECT_TYPE":"PAYLOAD"},{"MEAN_MOTION":"15.05109501","OBJECT_TYPE":"PAYLOAD","TLE_LINE1":"1 49162U 21082AJ  21358.91667824 -.00661511  00000-0 -49569-1 0  9993","PERIOD":"95.674","RA_OF_ASC_NODE":"206.7673","REF_FRAME":"TEME","ECCENTRICITY":"0.00032520","SITE":"AFWTR","TIME_SYSTEM":"UTC","OBJECT_ID":"2021-082AJ","BSTAR":"-0.04956900000000","EPHEMERIS_TYPE":"0","REV_AT_EPOCH":"360","INCLINATION":"69.9999","ELEMENT_SET_NO":"999","MEAN_MOTION_DOT":"-0.00661511","MEAN_ELEMENT_THEORY":"SGP4","FILE":"3250462","DECAY_DATE":null,"RCS_SIZE":"LARGE","CENTER_NAME":"EARTH","COUNTRY_CODE":"US","TLE_LINE2":"2 49162  69.9999 206.7673 0003252 286.7098 306.4114 15.05109501  3603","EPOCH":"2021-12-24T22:00:00.999936","ARG_OF_PERICENTER":"286.7098","MEAN_ANOMALY":"306.4114","APOAPSIS":"553.425","CLASSIFICATION_TYPE":"U","MEAN_MOTION_DDOT":"0.0000000000000","LAUNCH_DATE":"2021-09-14","OBJECT_NAME":"STARLINK-3082","NORAD_CAT_ID":"49162","PERIAPSIS":"548.918","GP_ID":"192398422","SEMIMAJOR_AXIS":"6929.307"},{"APOAPSIS":"362.020","MEAN_ANOMALY":"278.7402","ARG_OF_PERICENTER":"270.9744","MEAN_MOTION_DDOT":"0.0000000000000","CLASSIFICATION_TYPE":"U","PERIAPSIS":"357.342","NORAD_CAT_ID":"49163","OBJECT_NAME":"STARLINK-3088","LAUNCH_DATE":"2021-09-14","SEMIMAJOR_AXIS":"6737.816","GP_ID":"192398658","FILE":"3250462","MEAN_ELEMENT_THEORY":"SGP4","DECAY_DATE":null,"CENTER_NAME":"EARTH","RCS_SIZE":"LARGE","TLE_LINE2":"2 49163  69.9990 200.6916 0003471 270.9744 278.7402 15.69726654  3665","EPOCH":"2021-12-24T22:00:00.999936","COUNTRY_CODE":"US","TIME_SYSTEM":"UTC","OBJECT_ID":"2021-082AK","ECCENTRICITY":"0.00034710","SITE":"AFWTR","ELEMENT_SET_NO":"999","REV_AT_EPOCH":"366","INCLINATION":"69.9990","EPHEMERIS_TYPE":"0","BSTAR":"0.00050054000000","MEAN_MOTION_DOT":"0.00059913","MEAN_MOTION":"15.69726654","OBJECT_TYPE":"PAYLOAD","PERIOD":"91.736","TLE_LINE1":"1 49163U 21082AK  21358.91667824  .00059913  00000-0  50054-3 0  9992","REF_FRAME":"TEME","RA_OF_ASC_NODE":"200.6916"},{"DECAY_DATE":null,"MEAN_ELEMENT_THEORY":"SGP4","FILE":"3250462","TLE_LINE2":"2 49164  69.9989 200.6801 0003569 272.9823 287.4030 15.69704315  3669","EPOCH":"2021-12-24T22:00:00.999936","COUNTRY_CODE":"US","RCS_SIZE":"LARGE","CENTER_NAME":"EARTH","CLASSIFICATION_TYPE":"U","MEAN_MOTION_DDOT":"0.0000000000000","ARG_OF_PERICENTER":"272.9823","APOAPSIS":"362.150","MEAN_ANOMALY":"287.4030","GP_ID":"192399837","SEMIMAJOR_AXIS":"6737.880","LAUNCH_DATE":"2021-09-14","OBJECT_NAME":"STARLINK-3106","PERIAPSIS":"357.340","NORAD_CAT_ID":"49164","OBJECT_TYPE":"PAYLOAD","MEAN_MOTION":"15.69704315","RA_OF_ASC_NODE":"200.6801","REF_FRAME":"TEME","TLE_LINE1":"1 49164U 21082AL  21358.91667824  .00043868  00000-0  36800-3 0  9998","PERIOD":"91.737","BSTAR":"0.00036800000000","EPHEMERIS_TYPE":"0","REV_AT_EPOCH":"366","INCLINATION":"69.9989","ELEMENT_SET_NO":"999","SITE":"AFWTR","ECCENTRICITY":"0.00035690","OBJECT_ID":"2021-082AL","TIME_SYSTEM":"UTC","MEAN_MOTION_DOT":"0.00043868"},{"FILE":"3250462","MEAN_ELEMENT_THEORY":"SGP4","DECAY_DATE":null,"RCS_SIZE":"LARGE","CENTER_NAME":"EARTH","TLE_LINE2":"2 49165  70.0000 206.7707 0003109 275.5474 337.9224 15.05219631  3613","COUNTRY_CODE":"US","EPOCH":"2021-12-24T22:00:00.999936","ARG_OF_PERICENTER":"275.5474","MEAN_ANOMALY":"337.9224","APOAPSIS":"552.988","MEAN_MOTION_DDOT":"0.0000000000000","CLASSIFICATION_TYPE":"U","NORAD_CAT_ID":"49165","PERIAPSIS":"548.679","LAUNCH_DATE":"2021-09-14","OBJECT_NAME":"STARLINK-3052","SEMIMAJOR_AXIS":"6928.969","GP_ID":"192400073","MEAN_MOTION":"15.05219631","OBJECT_TYPE":"PAYLOAD","PERIOD":"95.667","TLE_LINE1":"1 49165U 21082AM  21358.91667824 -.00661580  00000-0 -49429-1 0  9997","REF_FRAME":"TEME","RA_OF_ASC_NODE":"206.7707","ECCENTRICITY":"0.00031090","SITE":"AFWTR","OBJECT_ID":"2021-082AM","TIME_SYSTEM":"UTC","REV_AT_EPOCH":"361","INCLINATION":"70.0000","ELEMENT_SET_NO":"999","EPHEMERIS_TYPE":"0","BSTAR":"-0.04942900000000","MEAN_MOTION_DOT":"-0.00661580"},{"MEAN_MOTION_DOT":"0.00003925","SITE":"AFWTR","ECCENTRICITY":"0.00035380","TIME_SYSTEM":"UTC","OBJECT_ID":"2021-082AN","INCLINATION":"69.9983","REV_AT_EPOCH":"366","ELEMENT_SET_NO":"999","BSTAR":"0.00003470000000","EPHEMERIS_TYPE":"0","PERIOD":"91.737","TLE_LINE1":"1 49166U 21082AN  21358.91667824  .00003925  00000-0  34700-4 0  9998","REF_FRAME":"TEME","RA_OF_ASC_NODE":"200.6803","MEAN_MOTION":"15.69709770","OBJECT_TYPE":"PAYLOAD","NORAD_CAT_ID":"49166","PERIAPSIS":"357.346","LAUNCH_DATE":"2021-09-14","OBJECT_NAME":"STARLINK-3089","SEMIMAJOR_AXIS":"6737.864","GP_ID":"192398894","ARG_OF_PERICENTER":"271.7242","MEAN_ANOMALY":"286.5159","APOAPSIS":"362.113","MEAN_MOTION_DDOT":"0.0000000000000","CLASSIFICATION_TYPE":"U","RCS_SIZE":"LARGE","CENTER_NAME":"EARTH","COUNTRY_CODE":"US","TLE_LINE2":"2 49166  69.9983 200.6803 0003538 271.7242 286.5159 15.69709770  3667","EPOCH":"2021-12-24T22:00:00.999936","FILE":"3250462","MEAN_ELEMENT_THEORY":"SGP4","DECAY_DATE":null}];
